norad_id,name,regime,epoch,line1,line2,inclination,eccentricity,mean_motion,raan,arg_pericenter,mean_anomaly
44333,AT&T T-16,GEO,24106.22713497,1 44333U 19034A   24106.22713497 -.00000125  00000-0  00000+0 0  3275\,2 44333   0.0182 236.9492 0001225  12.6780 295.1532  1.00268382 17677,0.0182,0.0001225,1.00268382,236.9492,12.678,295.1532
44333,AT&T T-16,GEO,24106.57906532,1 44333U 19034A   24106.57906532 -.00000125  00000-0  00000-0 0    17\,2 44333   0.0183 235.1954 0001254  13.4997  63.1247  1.00269026 17686,0.0183,0.0001254,1.00269026,235.1954,13.4997,63.1247
44333,AT&T T-16,GEO,24106.86533894,1 44333U 19034A   24106.86533894 -.00000125  00000-0  00000-0 0    16\,2 44333   0.0185 236.1369 0001223  11.5780 167.4424  1.00268978 17684,0.0185,0.0001223,1.00268978,236.1369,11.578,167.4424
44333,AT&T T-16,GEO,24107.53024396,1 44333U 19034A   24107.53024396 -.00000124  00000-0  00000-0 0    12\,2 44333   0.0182 236.2375 0001147   8.0426  50.8918  1.00269079 17699,0.0182,0.0001147,1.00269079,236.2375,8.0426,50.8918
44333,AT&T T-16,GEO,24107.72966198,1 44333U 19034A   24107.72966198 -.00000124  00000-0  00000+0 0  3290\,2 44333   0.0168 218.3890 0001026  19.8771 128.9011  1.00266723 17699,0.0168,0.0001026,1.00266723,218.389,19.8771,128.9011
44333,AT&T T-16,GEO,24107.86749698,1 44333U 19034A   24107.86749698 -.00000123  00000-0  00000-0 0    16\,2 44333   0.0169 217.1776 0001011  20.6067 179.1377  1.00266701 17691,0.0169,0.0001011,1.00266701,217.1776,20.6067,179.1377
44333,AT&T T-16,GEO,24108.52391691,1 44333U 19034A   24108.52391691 -.00000122  00000-0  00000-0 0    15\,2 44333   0.0168 215.1303 0000961  19.6781  59.0649  1.00266589 17702,0.0168,9.61e-05,1.00266589,215.1303,19.6781,59.0649
44333,AT&T T-16,GEO,24108.65510927,1 44333U 19034A   24108.65510927 -.00000122  00000-0  00000-0 0    14\,2 44333   0.0166 214.7706 0000963  20.5970 105.8629  1.00266563 17705,0.0166,9.63e-05,1.00266563,214.7706,20.597,105.8629
44333,AT&T T-16,GEO,24109.49979851,1 44333U 19034A   24109.49979851 -.00000119  00000-0  00000-0 0    18\,2 44333   0.0164 212.5590 0000854  12.6727  60.9101  1.00266516 17716,0.0164,8.54e-05,1.00266516,212.559,12.6727,60.9101
44333,AT&T T-16,GEO,24109.65722894,1 44333U 19034A   24109.65722894 -.00000119  00000-0  00000+0 0  3314\,2 44333   0.0179 218.4712 0000750  64.0037  60.5086  1.00266187 17715,0.0179,7.5e-05,1.00266187,218.4712,64.0037,60.5086
44333,AT&T T-16,GEO,24109.87208910,1 44333U 19034A   24109.87208910 -.00000118  00000-0  00000-0 0    10\,2 44333   0.0178 218.0314 0000534  65.8425 136.6718  1.00268972 17719,0.0178,5.34e-05,1.00268972,218.0314,65.8425,136.6718
44333,AT&T T-16,GEO,24110.01527378,1 44333U 19034A   24110.01527378 -.00000118  00000-0  00000-0 0    10\,2 44333   0.0177 218.2266 0000532  66.2030 187.8029  1.00268744 17722,0.0177,5.32e-05,1.00268744,218.2266,66.203,187.8029
44333,AT&T T-16,GEO,24110.60645535,1 44333U 19034A   24110.60645535 -.00000117  00000-0  00000+0 0  3337\,2 44333   0.0188 225.1088 0000549  26.7928  73.7483  1.00272768 17726,0.0188,5.49e-05,1.00272768,225.1088,26.7928,73.7483
44333,AT&T T-16,GEO,24110.87438856,1 44333U 19034A   24110.87438856 -.00000115  00000-0  00000-0 0    13\,2 44333   0.0185 225.4225 0000478  26.1590 170.7917  1.00273265 17722,0.0185,4.78e-05,1.00273265,225.4225,26.159,170.7917
44333,AT&T T-16,GEO,24110.94592115,1 44333U 19034A   24110.94592115 -.00000115  00000-0  00000-0 0    10\,2 44333   0.0184 225.7684 0000496  24.7317 197.6955  1.00272938 17720,0.0184,4.96e-05,1.00272938,225.7684,24.7317,197.6955
44333,AT&T T-16,GEO,24111.94815875,1 44333U 19034A   24111.94815875 -.00000110  00000-0  00000-0 0    17\,2 44333   0.0230 240.2532 0000639  52.5995 157.1386  1.00267447 17735,0.023,6.39e-05,1.00267447,240.2532,52.5995,157.1386
44333,AT&T T-16,GEO,24112.58336440,1 44333U 19034A   24112.58336440 -.00000108  00000-0  00000+0 0  3350\,2 44333   0.0190 252.2066 0001179  37.1543  29.9432  1.00268434 17738,0.019,0.0001179,1.00268434,252.2066,37.1543,29.9432
44333,AT&T T-16,GEO,24112.87875513,1 44333U 19034A   24112.87875513 -.00000107  00000-0  00000-0 0    11\,2 44333   0.0198 254.3707 0001058  36.5670 134.9963  1.00269620 17746,0.0198,0.0001058,1.0026962,254.3707,36.567,134.9963
44333,AT&T T-16,GEO,24113.02199431,1 44333U 19034A   24113.02199431 -.00000107  00000-0  00000+0 0  3367\,2 44333   0.0198 252.9362 0000972  35.0778 189.6276  1.00270686 17742,0.0198,9.72e-05,1.00270686,252.9362,35.0778,189.6276
44333,AT&T T-16,GEO,24113.47237623,1 44333U 19034A   24113.47237623 -.00000105  00000-0  00000-0 0    10\,2 44333   0.0182 258.5544 0001132 350.3940  31.2764  1.00267499 17755,0.0182,0.0001132,1.00267499,258.5544,350.394,31.2764
44333,AT&T T-16,GEO,24113.91507726,1 44333U 19034A   24113.91507726 -.00000103  00000-0  00000-0 0    11\,2 44333   0.0190 259.8249 0001010 349.8797 190.3255  1.00269055 17750,0.019,0.000101,1.00269055,259.8249,349.8797,190.3255
44333,AT&T T-16,GEO,24114.16701785,1 44333U 19034A   24114.16701785 -.00000103  00000-0  00000+0 0  3382\,2 44333   0.0202 257.0340 0000975 351.8936 282.0478  1.00269247 17752,0.0202,9.75e-05,1.00269247,257.034,351.8936,282.0478
44333,AT&T T-16,GEO,24114.58582397,1 44333U 19034A   24114.58582397 -.00000102  00000-0  00000-0 0    11\,2 44333   0.0205 258.2996 0000952 349.6712  74.1840  1.00269189 17766,0.0205,9.52e-05,1.00269189,258.2996,349.6712,74.184
44333,AT&T T-16,GEO,24114.66856580,1 44333U 19034A   24114.66856580 -.00000101  00000-0  00000-0 0    17\,2 44333   0.0211 257.7465 0000949 350.0533 104.2230  1.00269189 17769,0.0211,9.49e-05,1.00269189,257.7465,350.0533,104.223
44333,AT&T T-16,GEO,24115.16967476,1 44333U 19034A   24115.16967476 -.00000101  00000-0  00000+0 0  3393\,2 44333   0.0211 259.6328 0000906 345.2997 287.9786  1.00269138 17760,0.0211,9.06e-05,1.00269138,259.6328,345.2997,287.9786
44333,AT&T T-16,GEO,24115.54864222,1 44333U 19034A   24115.54864222 -.00000100  00000-0  00000+0 0  3401\,2 44333   0.0203 260.3114 0000779 330.4267  78.9599  1.00267212 17768,0.0203,7.79e-05,1.00267212,260.3114,330.4267,78.9599
44333,AT&T T-16,GEO,24115.59219582,1 44333U 19034A   24115.59219582 -.00000099  00000-0  00000-0 0    11\,2 44333   0.0200 260.5940 0000780 330.2829  94.5430  1.00267217 17772,0.02,7.8e-05,1.00267217,260.594,330.2829,94.543
44333,AT&T T-16,GEO,24115.67077622,1 44333U 19034A   24115.67077622 -.00000099  00000-0  00000-0 0    17\,2 44333   0.0195 260.4751 0000787 331.2790 122.0313  1.00267227 17777,0.0195,7.87e-05,1.00267227,260.4751,331.279,122.0313
44333,AT&T T-16,GEO,24116.43748500,1 44333U 19034A   24116.43748500 -.00000099  00000-0  00000-0 0    12\,2 44333   0.0172 261.6272 0000762 324.8392  44.0816  1.00267286 17789,0.0172,7.62e-05,1.00267286,261.6272,324.8392,44.0816
44333,AT&T T-16,GEO,24116.91091264,1 44333U 19034A   24116.91091264 -.00000099  00000-0  00000-0 0    13\,2 44333   0.0177 262.6521 0000552  24.3456 154.4593  1.00268261 17784,0.0177,5.52e-05,1.00268261,262.6521,24.3456,154.4593
44333,AT&T T-16,GEO,24118.03298241,1 44333U 19034A   24118.03298241 -.00000101  00000-0  00000-0 0    16\,2 44333   0.0177 261.1009 0000698  20.5915 204.8369  1.00271441 17806,0.0177,6.98e-05,1.00271441,261.1009,20.5915,204.8369
44333,AT&T T-16,GEO,24120.03714248,1 44333U 19034A   24120.03714248 -.00000107  00000-0  00000+0 0  3433\,2 44333   0.0154 263.6545 0000900  25.5278 200.8298  1.00270029 17815,0.0154,9e-05,1.00270029,263.6545,25.5278,200.8298
44333,AT&T T-16,GEO,24120.46657295,1 44333U 19034A   24120.46657295 -.00000109  00000-0  00000+0 0  3441\,2 44333   0.0148 265.8775 0000808   7.1254  12.0311  1.00272190 17814,0.0148,8.08e-05,1.0027219,265.8775,7.1254,12.0311
44333,AT&T T-16,GEO,24120.73799334,1 44333U 19034A   24120.73799334 -.00000109  00000-0  00000+0 0  3453\,2 44333   0.0160 263.0302 0000909 352.1669 127.8096  1.00268570 17822,0.016,9.09e-05,1.0026857,263.0302,352.1669,127.8096
44333,AT&T T-16,GEO,24120.89600192,1 44333U 19034A   24120.89600192 -.00000109  00000-0  00000-0 0    13\,2 44333   0.0159 264.5009 0000953 352.2121 183.3300  1.00268281 17827,0.0159,9.53e-05,1.00268281,264.5009,352.2121,183.33
44333,AT&T T-16,GEO,24121.54022932,1 44333U 19034A   24121.54022932 -.00000111  00000-0  00000-0 0    19\,2 44333   0.0168 261.8236 0000931 352.1284  58.6400  1.00268192 17831,0.0168,9.31e-05,1.00268192,261.8236,352.1284,58.64
44333,AT&T T-16,GEO,24121.82643865,1 44333U 19034A   24121.82643865 -.00000113  00000-0  00000+0 0  3467\,2 44333   0.0179 262.2030 0000939 351.1556 162.5472  1.00268143 17839,0.0179,9.39e-05,1.00268143,262.203,351.1556,162.5472
44333,AT&T T-16,GEO,24121.89814525,1 44333U 19034A   24121.89814525 -.00000112  00000-0  00000-0 0    15\,2 44333   0.0178 262.4537 0000942 350.3961 188.9400  1.00268118 17832,0.0178,9.42e-05,1.00268118,262.4537,350.3961,188.94
44333,AT&T T-16,GEO,24122.58303869,1 44333U 19034A   24122.58303869 -.00000114  00000-0  00000-0 0    18\,2 44333   0.0187 261.9208 0000950 349.1001  77.9968  1.00267981 17845,0.0187,9.5e-05,1.00267981,261.9208,349.1001,77.9968
44333,AT&T T-16,GEO,24122.82849703,1 44333U 19034A   24122.82849703 -.00000115  00000-0  00000+0 0  3470\,2 44333   0.0195 263.1032 0000984 350.3799 164.1384  1.00267974 17841,0.0195,9.84e-05,1.00267974,263.1032,350.3799,164.1384
44333,AT&T T-16,GEO,24123.47279625,1 44333U 19034A   24123.47279625 -.00000116  00000-0  00000-0 0    11\,2 44333   0.0190 264.7267 0000861 344.8312  40.6473  1.00270381 17850,0.019,8.61e-05,1.00270381,264.7267,344.8312,40.6473
44333,AT&T T-16,GEO,24123.61834316,1 44333U 19034A   24123.61834316 -.00000117  00000-0  00000+0 0  3496\,2 44333   0.0200 262.4566 0000864  22.8482  57.4460  1.00271109 17854,0.02,8.64e-05,1.00271109,262.4566,22.8482,57.446
44333,AT&T T-16,GEO,24124.44260720,1 44333U 19034A   24124.44260720 -.00000117  00000-0  00000-0 0    16\,2 44333   0.0212 268.4349 0000967 347.8610  24.0052  1.00269844 17860,0.0212,9.67e-05,1.00269844,268.4349,347.861,24.0052
